[{"spaceTrack":{"CCSDS_OMM_VERS":"2.0","COMMENT":"GENERATED VIA SPACE-TRACK.ORG API","CREATION_DATE":"2021-10-26T14:36:12","ORIGINATOR":"18 SPCS","OBJECT_NAME":"STARLINK-1026","OBJECT_ID":"2019-074U","CENTER_NAME":"EARTH","REF_FRAME":"TEME","TIME_SYSTEM":"UTC","MEAN_ELEMENT_THEORY":"SGP4","EPOCH":"2021-10-26T07:24:40.097088","MEAN_MOTION":15.06390239,"ECCENTRICITY":0.0001709,"INCLINATION":53.0526,"RA_OF_ASC_NODE":148.5684,"ARG_OF_PERICENTER":75.4539,"MEAN_ANOMALY":284.6639,"EPHEMERIS_TYPE":0,"CLASSIFICATION_TYPE":"U","NORAD_CAT_ID":44731,"ELEMENT_SET_NO":999,"REV_AT_EPOCH":10845,"BSTAR":0.00011695,"MEAN_MOTION_DOT":0.0000146,"MEAN_MOTION_DDOT":0,"SEMIMAJOR_AXIS":6925.378,"PERIOD":95.593,"APOAPSIS":548.427,"PERIAPSIS":546.06,"OBJECT_TYPE":"PAYLOAD","RCS_SIZE":"LARGE","COUNTRY_CODE":"US","LAUNCH_DATE":"2019-11-11","SITE":"AFETR","DECAY_DATE":null,"DECAYED":0,"FILE":3184654,"GP_ID":188171669,"TLE_LINE0":"0 STARLINK-1026","TLE_LINE1":"1 44731U 19074U   21299.30879742  .00001460  00000-0  11695-3 0  9999","TLE_LINE2":"2 44731  53.0526 148.5684 0001709  75.4539 284.6639 15.06390239108452"},"launch":"5eb87d39ffd86e000604b37d","version":"v1.0","height_km":549.1458450198224,"latitude":36.9088731463754,"longitude":-87.81821155746239,"velocity_kms":7.592665035773276,"id":"5eed7714096e59000698568b"},{"spaceTrack":{"CCSDS_OMM_VERS":"2.0","COMMENT":"GENERATED VIA SPACE-TRACK.ORG API","CREATION_DATE":"2021-10-26T14:46:11","ORIGINATOR":"18 SPCS","OBJECT_NAME":"STARLINK-1098","OBJECT_ID":"2020-001D","CENTER_NAME":"EARTH","REF_FRAME":"TEME","TIME_SYSTEM":"UTC","MEAN_ELEMENT_THEORY":"SGP4","EPOCH":"2021-10-26T09:47:57.833664","MEAN_MOTION":15.06416411,"ECCENTRICITY":0.0001163,"INCLINATION":53.0533,"RA_OF_ASC_NODE":308.1278,"ARG_OF_PERICENTER":83.7906,"MEAN_ANOMALY":276.3215,"EPHEMERIS_TYPE":0,"CLASSIFICATION_TYPE":"U","NORAD_CAT_ID":44917,"ELEMENT_SET_NO":999,"REV_AT_EPOCH":9940,"BSTAR":0.0002153,"MEAN_MOTION_DOT":0.00002928,"MEAN_MOTION_DDOT":0,"SEMIMAJOR_AXIS":6925.298,"PERIOD":95.591,"APOAPSIS":547.969,"PERIAPSIS":546.358,"OBJECT_TYPE":"PAYLOAD","RCS_SIZE":"LARGE","COUNTRY_CODE":"US","LAUNCH_DATE":"2020-01-07","SITE":"AFETR","DECAY_DATE":null,"DECAYED":0,"FILE":3184846,"GP_ID":188175412,"TLE_LINE0":"0 STARLINK-1098","TLE_LINE1":"1 44917U 20001D   21299.40830826  .00002928  00000-0  21530-3 0  9997","TLE_LINE2":"2 44917  53.0533 308.1278 0001163  83.7906 276.3215 15.06416411 99406"},"launch":"5eb87d3cffd86e000604b380","version":"v1.0","height_km":559.7449968999936,"latitude":-37.051041722548376,"longitude":-107.61073110615405,"velocity_kms":7.581036981705976,"id":"5eed7714096e59000698568c"},{"spaceTrack":{"CCSDS_OMM_VERS":"2.0","COMMENT":"GENERATED VIA SPACE-TRACK.ORG API","CREATION_DATE":"2021-10-25T22:36:11","ORIGINATOR":"18 SPCS","OBJECT_NAME":"STARLINK-1103","OBJECT_ID":"2020-001H","CENTER_NAME":"EARTH","REF_FRAME":"TEME","TIME_SYSTEM":"UTC","MEAN_ELEMENT_THEORY":"SGP4","EPOCH":"2021-10-25T10:37:41.644704","MEAN_MOTION":15.05583375,"ECCENTRICITY":0.0001211,"INCLINATION":53.0001,"RA_OF_ASC_NODE":312.4574,"ARG_OF_PERICENTER":77.6605,"MEAN_ANOMALY":282.4518,"EPHEMERIS_TYPE":0,"CLASSIFICATION_TYPE":"U","NORAD_CAT_ID":44921,"ELEMENT_SET_NO":999,"REV_AT_EPOCH":9923,"BSTAR":-0.000016818,"MEAN_MOTION_DOT":-0.00000524,"MEAN_MOTION_DDOT":0,"SEMIMAJOR_AXIS":6927.853,"PERIOD":95.644,"APOAPSIS":550.556,"PERIAPSIS":548.879,"OBJECT_TYPE":"PAYLOAD","RCS_SIZE":"LARGE","COUNTRY_CODE":"US","LAUNCH_DATE":"2020-01-07","SITE":"AFETR","DECAY_DATE":null,"DECAYED":0,"FILE":3183691,"GP_ID":188151301,"TLE_LINE0":"0 STARLINK-1103","TLE_LINE1":"1 44921U 20001H   21298.44284311 -.00000524  00000-0 -16818-4 0  9993","TLE_LINE2":"2 44921  53.0001 312.4574 0001211  77.6605 282.4518 15.05583375 99238"},"launch":"5eb87d3cffd86e000604b380","version":"v1.0","height_km":553.8018218778625,"latitude":45.872904986949784,"longitude":88.59198806567846,"velocity_kms":7.590924368598734,"id":"5eed7714096e59000698568d"},{"spaceTrack":{"CCSDS_OMM_VERS":"2.0","COMMENT":"GENERATED VIA SPACE-TRACK.ORG API","CREATION_DATE":"2021-10-26T14:46:11","ORIGINATOR":"18 SPCS","OBJECT_NAME":"STARLINK-1071","OBJECT_ID":"2020-001W","CENTER_NAME":"EARTH","REF_FRAME":"TEME","TIME_SYSTEM":"UTC","MEAN_ELEMENT_THEORY":"SGP4","EPOCH":"2021-10-26T10:33:04.101120","MEAN_MOTION":15.06404443,"ECCENTRICITY":0.0001525,"INCLINATION":53.0542,"RA_OF_ASC_NODE":287.9786,"ARG_OF_PERICENTER":77.998,"MEAN_ANOMALY":282.118,"EPHEMERIS_TYPE":0,"CLASSIFICATION_TYPE":"U","NORAD_CAT_ID":44934,"ELEMENT_SET_NO":999,"REV_AT_EPOCH":9968,"BSTAR":0.000028204,"MEAN_MOTION_DOT":0.00000139,"MEAN_MOTION_DDOT":0,"SEMIMAJOR_AXIS":6925.335,"PERIOD":95.592,"APOAPSIS":548.256,"PERIAPSIS":546.144,"OBJECT_TYPE":"PAYLOAD","RCS_SIZE":"LARGE","COUNTRY_CODE":"US","LAUNCH_DATE":"2020-01-07","SITE":"AFETR","DECAY_DATE":null,"DECAYED":0,"FILE":3184819,"GP_ID":188175248,"TLE_LINE0":"0 STARLINK-1071","TLE_LINE1":"1 44934U 20001W   21299.43963080  .00000139  00000-0  28204-4 0  9996","TLE_LINE2":"2 44934  53.0542 287.9786 0001525  77.9980 282.1180 15.06404443 99680"},"launch":"5eb87d3cffd86e000604b380","version":"v1.0","height_km":550.4853986427015,"latitude":43.158518335111076,"longitude":62.537401661897405,"velocity_kms":7.592565368914976,"id":"5eed7714096e59000698568e"},{"spaceTrack":{"CCSDS_OMM_VERS":"2.0","COMMENT":"GENERATED VIA SPACE-TRACK.ORG API","CREATION_DATE":"2021-10-26T14:36:12","ORIGINATOR":"18 SPCS","OBJECT_NAME":"STARLINK-1063","OBJECT_ID":"2019-074BH","CENTER_NAME":"EARTH","REF_FRAME":"TEME","TIME_SYSTEM":"UTC","MEAN_ELEMENT_THEORY":"SGP4","EPOCH":"2021-10-26T02:43:20.545536","MEAN_MOTION":15.06414278,"ECCENTRICITY":0.0001878,"INCLINATION":53.0535,"RA_OF_ASC_NODE":189.4447,"ARG_OF_PERICENTER":75.3703,"MEAN_ANOMALY":284.7494,"EPHEMERIS_TYPE":0,"CLASSIFICATION_TYPE":"U","NORAD_CAT_ID":44768,"ELEMENT_SET_NO":999,"REV_AT_EPOCH":10787,"BSTAR":0.00012705,"MEAN_MOTION_DOT":0.00001612,"MEAN_MOTION_DDOT":0,"SEMIMAJOR_AXIS":6925.305,"PERIOD":95.591,"APOAPSIS":548.47,"PERIAPSIS":545.869,"OBJECT_TYPE":"PAYLOAD","RCS_SIZE":"LARGE","COUNTRY_CODE":"US","LAUNCH_DATE":"2019-11-11","SITE":"AFETR","DECAY_DATE":null,"DECAYED":0,"FILE":3184664,"GP_ID":188171324,"TLE_LINE0":"0 STARLINK-1063","TLE_LINE1":"1 44768U 19074BH  21299.11343224  .00001612  00000-0  12705-3 0  9991","TLE_LINE2":"2 44768  53.0535 189.4447 0001878  75.3703 284.7494 15.06414278107877"},"launch":"5eb87d39ffd86e000604b37d","version":"v1.0","height_km":546.9940404755216,"latitude":22.578313569965278,"longitude":-63.878946689575656,"velocity_kms":7.592218960355994,"id":"5eed7714096e59000698568f"},{"spaceTrack":{"CCSDS_OMM_VERS":"2.0","COMMENT":"GENERATED VIA SPACE-TRACK.ORG API","CREATION_DATE":"2021-10-25T22:26:12","ORIGINATOR":"18 SPCS","OBJECT_NAME":"STARLINK-1033","OBJECT_ID":"2019-074AB","CENTER_NAME":"EARTH","REF_FRAME":"TEME","TIME_SYSTEM":"UTC","MEAN_ELEMENT_THEORY":"SGP4","EPOCH":"2021-10-25T09:15:04.772160","MEAN_MOTION":15.06397933,"ECCENTRICITY":0.0002111,"INCLINATION":53.0532,"RA_OF_ASC_NODE":172.7019,"ARG_OF_PERICENTER":74.6099,"MEAN_ANOMALY":285.5123,"EPHEMERIS_TYPE":0,"CLASSIFICATION_TYPE":"U","NORAD_CAT_ID":44738,"ELEMENT_SET_NO":999,"REV_AT_EPOCH":10803,"BSTAR":0.00014675,"MEAN_MOTION_DOT":0.00001905,"MEAN_MOTION_DDOT":0,"SEMIMAJOR_AXIS":6925.355,"PERIOD":95.592,"APOAPSIS":548.682,"PERIAPSIS":545.758,"OBJECT_TYPE":"PAYLOAD","RCS_SIZE":"LARGE","COUNTRY_CODE":"US","LAUNCH_DATE":"2019-11-11","SITE":"AFETR","DECAY_DATE":null,"DECAYED":0,"FILE":3183598,"GP_ID":188148773,"TLE_LINE0":"0 STARLINK-1033","TLE_LINE1":"1 44738U 19074AB  21298.38547190  .00001905  00000-0  14675-3 0  9997","TLE_LINE2":"2 44738  53.0532 172.7019 0002111  74.6099 285.5123 15.06397933108037"},"launch":"5eb87d39ffd86e000604b37d","version":"v1.0","height_km":546.6282514451214,"latitude":14.741340081205749,"longitude":-90.6607716358062,"velocity_kms":7.59157123095659,"id":"5eed7714096e590006985690"},{"spaceTrack":{"CCSDS_OMM_VERS":"2.0","COMMENT":"GENERATED VIA SPACE-TRACK.ORG API","CREATION_DATE":"2021-10-26T07:06:12","ORIGINATOR":"18 SPCS","OBJECT_NAME":"STARLINK-1128","OBJECT_ID":"2020-001T","CENTER_NAME":"EARTH","REF_FRAME":"TEME","TIME_SYSTEM":"UTC","MEAN_ELEMENT_THEORY":"SGP4","EPOCH":"2021-10-26T01:23:43.503360","MEAN_MOTION":15.06396852,"ECCENTRICITY":0.0001246,"INCLINATION":53.0541,"RA_OF_ASC_NODE":309.6867,"ARG_OF_PERICENTER":83.2968,"MEAN_ANOMALY":276.8163,"EPHEMERIS_TYPE":0,"CLASSIFICATION_TYPE":"U","NORAD_CAT_ID":44931,"ELEMENT_SET_NO":999,"REV_AT_EPOCH":10008,"BSTAR":-0.000023556,"MEAN_MOTION_DOT":-0.00000632,"MEAN_MOTION_DDOT":0,"SEMIMAJOR_AXIS":6925.358,"PERIOD":95.592,"APOAPSIS":548.086,"PERIAPSIS":546.36,"OBJECT_TYPE":"PAYLOAD","RCS_SIZE":"LARGE","COUNTRY_CODE":"US","LAUNCH_DATE":"2020-01-07","SITE":"AFETR","DECAY_DATE":null,"DECAYED":0,"FILE":3184285,"GP_ID":188163929,"TLE_LINE0":"0 STARLINK-1128","TLE_LINE1":"1 44931U 20001T   21299.05814240 -.00000632  00000-0 -23556-4 0  9999","TLE_LINE2":"2 44931  53.0541 309.6867 0001246  83.2968 276.8163 15.06396852100086"},"launch":"5eb87d3cffd86e000604b380","version":"v1.0","height_km":554.7919801113667,"latitude":-24.823587898598618,"longitude":17.755031845290354,"velocity_kms":7.584079360265395,"id":"5eed7714096e590006985691"}]